{
"type": "FeatureCollection",
"name": "psh_providers_sf",
"crs": { "type": "name", "properties": { "name": "urn:ogc:def:crs:OGC:1.3:CRS84" } },
"features": [
{ "type": "Feature", "properties": { "name": "Terrace at Oak\nSpring", "service_provider_owner": "Integral Care", "target_pop": "Chronic Single hh and 25 vets", "year_operational": "2019", "units": 50.0, "psh_units": 50.0, "address": "3000 Oak Springs", "zip_code": 78721.0 }, "geometry": { "type": "Point", "coordinates": [ -97.698320020482285, 30.284093755288101 ] } },
{ "type": "Feature", "properties": { "name": "Elysium Grand", "service_provider_owner": "VA", "target_pop": "Vets", "year_operational": "2020", "units": 90.0, "psh_units": 25.0, "address": "3300 Oak Creek Drive", "zip_code": 78727.0 }, "geometry": { "type": "Point", "coordinates": [ -97.705579504949156, 30.428096843637721 ] } },
{ "type": "Feature", "properties": { "name": "Chalmers East", "service_provider_owner": "VA", "target_pop": "Vets", "year_operational": "2020", "units": null, "psh_units": 8.0, "address": "1700 E 3rd", "zip_code": 78702.0 }, "geometry": { "type": "Point", "coordinates": [ -97.725384885925124, 30.26017772592223 ] } },
{ "type": "Feature", "properties": { "name": "Capital Studios", "service_provider_owner": "Foundation Communities", "target_pop": "Chronic Single hh", "year_operational": "2021", "units": 135.0, "psh_units": 20.0, "address": "309 E 11th St", "zip_code": 78701.0 }, "geometry": { "type": "Point", "coordinates": [ -97.738090262626116, 30.272178672192378 ] } },
{ "type": "Feature", "properties": { "name": "Waterloo\nTerrace", "service_provider_owner": "Foundation Communities", "target_pop": "Chronic Single hh", "year_operational": "2021", "units": 132.0, "psh_units": 15.0, "address": "12190 N Mopac", "zip_code": 78758.0 }, "geometry": { "type": "Point", "coordinates": [ -97.709072493300482, 30.414770672844995 ] } },
{ "type": "Feature", "properties": { "name": "Skyline Terrace", "service_provider_owner": "Foundation Communities", "target_pop": "Chronic Single hh", "year_operational": "Existing", "units": 100.0, "psh_units": 10.0, "address": "1212 W Ben White Blvd", "zip_code": 78704.0 }, "geometry": { "type": "Point", "coordinates": [ -97.777965174277185, 30.228780938755992 ] } },
{ "type": "Feature", "properties": { "name": "Chalmers West", "service_provider_owner": "HACA", "target_pop": "Chronic Vet", "year_operational": "2024", "units": null, "psh_units": 8.0, "address": "1700 E 3rd", "zip_code": 78702.0 }, "geometry": { "type": "Point", "coordinates": [ -97.725599462626604, 30.260066521990172 ] } },
{ "type": "Feature", "properties": { "name": "Espero at\nRutland", "service_provider_owner": "Caritas", "target_pop": "Chronic and 25 Vets", "year_operational": "2024", "units": 171.0, "psh_units": 101.0, "address": "1934 Rutland Dr", "zip_code": 78757.0 }, "geometry": { "type": "Point", "coordinates": [ -97.712230631940841, 30.379430944995164 ] } },
{ "type": "Feature", "properties": { "name": "Bungalows at\nCentury Park", "service_provider_owner": "Integral Care", "target_pop": "Chronic", "year_operational": "2024", "units": 60.0, "psh_units": 60.0, "address": "13311 Burnet Rd", "zip_code": 78727.0 }, "geometry": { "type": "Point", "coordinates": [ -97.698652666310124, 30.433795565569628 ] } },
{ "type": "Feature", "properties": { "name": "Balcones\nTerrace", "service_provider_owner": "Foundation Communities", "target_pop": "Chronic and 25 Vets", "year_operational": "2024", "units": 123.0, "psh_units": 50.0, "address": "10024 N Capital of TX", "zip_code": 78759.0 }, "geometry": { "type": "Point", "coordinates": [ -97.737390108641804, 30.391721675267998 ] } },
{ "type": "Feature", "properties": { "name": "Pecan Gardens", "service_provider_owner": "Family Eldercare", "target_pop": "Chronic  - 55+", "year_operational": "2024", "units": 78.0, "psh_units": 78.0, "address": "10811 Pecan Park Blvd", "zip_code": 78750.0 }, "geometry": { "type": "Point", "coordinates": [ -97.803607676112563, 30.463452268732773 ] } },
{ "type": "Feature", "properties": { "name": "Libertad Austin", "service_provider_owner": "Caritas", "target_pop": "Chronic and 25 Vets", "year_operational": "2024", "units": 198.0, "psh_units": 50.0, "address": "900 Gardner", "zip_code": 78721.0 }, "geometry": { "type": "Point", "coordinates": [ -97.686636097757599, 30.254807898762287 ] } },
{ "type": "Feature", "properties": { "name": "Kensington\nApartments", "service_provider_owner": "Integral Care", "target_pop": "25 Vets and 30 Chronic", "year_operational": "2024", "units": 142.0, "psh_units": 55.0, "address": "3300 Manor Rd", "zip_code": 78723.0 }, "geometry": { "type": "Point", "coordinates": [ -97.702589977965701, 30.288029031357642 ] } },
{ "type": "Feature", "properties": { "name": "Burleson\nVillage", "service_provider_owner": "Foundation Communities", "target_pop": "Chronic and 20 Vets", "year_operational": "2025", "units": 100.0, "psh_units": 50.0, "address": "7905 Burleson Rd", "zip_code": 78744.0 }, "geometry": { "type": "Point", "coordinates": [ -97.694253547289406, 30.187843598832416 ] } },
{ "type": "Feature", "properties": { "name": "Cady Lofts", "service_provider_owner": "Endeavors", "target_pop": "Chronic", "year_operational": "2025", "units": 100.0, "psh_units": 100.0, "address": "1004 E. 39th", "zip_code": 78751.0 }, "geometry": { "type": "Point", "coordinates": [ -97.720252360779483, 30.296415509922145 ] } },
{ "type": "Feature", "properties": { "name": "Cairn Point at\nCameron", "service_provider_owner": "Caritas/Vecino Group/AHFC", "target_pop": "Chronic and 25 Vets", "year_operational": "2025", "units": 150.0, "psh_units": 100.0, "address": "7205 Cameron Rd", "zip_code": 78752.0 }, "geometry": { "type": "Point", "coordinates": [ -97.690616497454073, 30.326756820947924 ] } },
{ "type": "Feature", "properties": { "name": "The Sasha", "service_provider_owner": "SAFE", "target_pop": "DV", "year_operational": "2025", "units": 60.0, "psh_units": 30.0, "address": "1515 Grove", "zip_code": 78741.0 }, "geometry": { "type": "Point", "coordinates": [ -97.705697843596525, 30.231275868770172 ] } },
{ "type": "Feature", "properties": { "name": "The Rhett", "service_provider_owner": "AHFC, Saigebrook", "target_pop": "Vets", "year_operational": "2025", "units": 215.0, "psh_units": 8.0, "address": "1000 E Yager Lane", "zip_code": 78753.0 }, "geometry": { "type": "Point", "coordinates": [ -97.660718980094742, 30.392817146040805 ] } },
{ "type": "Feature", "properties": { "name": "The Works III", "service_provider_owner": "Lifeworks", "target_pop": "18-24", "year_operational": "2025", "units": 120.0, "psh_units": 50.0, "address": "701 Tillery St", "zip_code": 78702.0 }, "geometry": { "type": "Point", "coordinates": [ -97.704342843752315, 30.261308199484599 ] } },
{ "type": "Feature", "properties": { "name": "Lancaster", "service_provider_owner": "SAFE", "target_pop": "DV", "year_operational": "2025", "units": 60.0, "psh_units": 30.0, "address": "5111 Lancaster", "zip_code": 78723.0 }, "geometry": { "type": "Point", "coordinates": [ -97.705680801263298, 30.308616465776275 ] } },
{ "type": "Feature", "properties": { "name": "Real Gardens", "service_provider_owner": "Family Eldercare", "target_pop": "Chronic - 62+ and People with Disabilities", "year_operational": "2025", "units": 60.0, "psh_units": 60.0, "address": "2826 Real St", "zip_code": 78722.0 }, "geometry": { "type": "Point", "coordinates": [ -97.710683289615162, 30.283437123823628 ] } },
{ "type": "Feature", "properties": { "name": "Seabrook Square", "service_provider_owner": "Integral Care", "target_pop": "Chronic", "year_operational": "2026", "units": 60.0, "psh_units": 60.0, "address": "2212 Pershing Drive", "zip_code": 78723.0 }, "geometry": { "type": "Point", "coordinates": [ -97.69883132029554, 30.288423972707257 ] } },
{ "type": "Feature", "properties": { "name": "The Roz", "service_provider_owner": "Endeavors", "target_pop": "Chronic and Vets", "year_operational": "2026", "units": 100.0, "psh_units": 100.0, "address": "3435 Parker Lane", "zip_code": 78741.0 }, "geometry": { "type": "Point", "coordinates": [ -97.742936558937345, 30.218934491581887 ] } },
{ "type": "Feature", "properties": { "name": "Cairn Point\nMontopolis", "service_provider_owner": "Family Eldercare/Vecino", "target_pop": "55+", "year_operational": "2027", "units": 150.0, "psh_units": 65.0, "address": "1013 Montopolis Dr", "zip_code": null }, "geometry": { "type": "Point", "coordinates": [ -97.697759416606857, 30.233748849632882 ] } }
]
}
